[{"CCSDS_OMM_VERS":"2.0","COMMENT":"GENERATED VIA SPACE-TRACK.ORG API","CREATION_DATE":"2004-08-15T23:35:38","ORIGINATOR":"18 SPCS","OBJECT_NAME":"SL-6 R\/B(1)","OBJECT_ID":"1965-080D","CENTER_NAME":"EARTH","REF_FRAME":"TEME","TIME_SYSTEM":"UTC","MEAN_ELEMENT_THEORY":"SGP4","EPOCH":"1965-10-27T23:46:40.852704","MEAN_MOTION":"15.87152873","ECCENTRICITY":"0.01665820","INCLINATION":"64.8300","RA_OF_ASC_NODE":"99.6034","ARG_OF_PERICENTER":"60.2676","MEAN_ANOMALY":"301.4049","EPHEMERIS_TYPE":"0","CLASSIFICATION_TYPE":"U","NORAD_CAT_ID":"1623","ELEMENT_SET_NO":"999","REV_AT_EPOCH":"217","BSTAR":"0.00000000000000","MEAN_MOTION_DOT":"0.00769192","MEAN_MOTION_DDOT":"0.0011909000000","SEMIMAJOR_AXIS":"6688.410","PERIOD":"90.728","APOAPSIS":"421.692","PERIAPSIS":"198.859","OBJECT_TYPE":"ROCKET BODY","RCS_SIZE":null,"COUNTRY_CODE":null,"LAUNCH_DATE":null,"SITE":null,"DECAY_DATE":"1965-11-16","FILE":"33911","GP_ID":"8703688","TLE_LINE0":"0 SL-6 R\/B(1)","TLE_LINE1":"1 01623U 65080  D 65300.99075061  .00769192 +11909-2 +00000-0 0  9998","TLE_LINE2":"2 01623 064.8300 099.6034 0166582 060.2676 301.4049 15.87152873002179"},{"CCSDS_OMM_VERS":"2.0","COMMENT":"GENERATED VIA SPACE-TRACK.ORG API","CREATION_DATE":"2004-08-15T23:35:38","ORIGINATOR":"18 SPCS","OBJECT_NAME":"SL-6 PLAT","OBJECT_ID":"1965-080B","CENTER_NAME":"EARTH","REF_FRAME":"TEME","TIME_SYSTEM":"UTC","MEAN_ELEMENT_THEORY":"SGP4","EPOCH":"1965-11-01T23:45:37.753056","MEAN_MOTION":"16.06358235","ECCENTRICITY":"0.01064360","INCLINATION":"64.8461","RA_OF_ASC_NODE":"80.9009","ARG_OF_PERICENTER":"54.5821","MEAN_ANOMALY":"306.4410","EPHEMERIS_TYPE":"0","CLASSIFICATION_TYPE":"U","NORAD_CAT_ID":"1619","ELEMENT_SET_NO":"999","REV_AT_EPOCH":"298","BSTAR":"0.00000000000000","MEAN_MOTION_DOT":"0.01244371","MEAN_MOTION_DDOT":"0.0039375000000","SEMIMAJOR_AXIS":"6634.993","PERIOD":"89.643","APOAPSIS":"327.478","PERIAPSIS":"186.238","OBJECT_TYPE":"DEBRIS","RCS_SIZE":null,"COUNTRY_CODE":null,"LAUNCH_DATE":null,"SITE":null,"DECAY_DATE":"1965-11-08","FILE":"33911","GP_ID":"8703675","TLE_LINE0":"0 SL-6 PLAT","TLE_LINE1":"1 01619U 65080  B 65305.99002029  .01244371 +39375-2 +00000-0 0  9997","TLE_LINE2":"2 01619 064.8461 080.9009 0106436 054.5821 306.4410 16.06358235002985"},{"CCSDS_OMM_VERS":"2.0","COMMENT":"GENERATED VIA SPACE-TRACK.ORG API","CREATION_DATE":"2004-08-15T23:35:38","ORIGINATOR":"18 SPCS","OBJECT_NAME":"VENERA 2","OBJECT_ID":"1965-091A","CENTER_NAME":"EARTH","REF_FRAME":"TEME","TIME_SYSTEM":"UTC","MEAN_ELEMENT_THEORY":"SGP4","EPOCH":"1965-11-12T07:34:56.828063","MEAN_MOTION":"16.05105958","ECCENTRICITY":"0.00829970","INCLINATION":"51.8844","RA_OF_ASC_NODE":"133.0512","ARG_OF_PERICENTER":"102.4729","MEAN_ANOMALY":"258.4645","EPHEMERIS_TYPE":"0","CLASSIFICATION_TYPE":"U","NORAD_CAT_ID":"1730","ELEMENT_SET_NO":"999","REV_AT_EPOCH":"2","BSTAR":"0.00000000000000","MEAN_MOTION_DOT":"0.00087950","MEAN_MOTION_DDOT":"0.0000193230000","SEMIMAJOR_AXIS":"6638.444","PERIOD":"89.713","APOAPSIS":"315.406","PERIAPSIS":"205.212","OBJECT_TYPE":"PAYLOAD","RCS_SIZE":null,"COUNTRY_CODE":"CIS","LAUNCH_DATE":"1965-11-12","SITE":"TTMTR","DECAY_DATE":null,"FILE":"33911","GP_ID":"8703716","TLE_LINE0":"0 VENERA 2","TLE_LINE1":"1 01730U 65091  A 65316.31593551  .00087950 +19323-4 +00000-0 0  9996","TLE_LINE2":"2 01730 051.8844 133.0512 0082997 102.4729 258.4645 16.05105958000024"},{"CCSDS_OMM_VERS":"2.0","COMMENT":"GENERATED VIA SPACE-TRACK.ORG API","CREATION_DATE":"2004-08-15T23:35:38","ORIGINATOR":"18 SPCS","OBJECT_NAME":"COSMOS 51","OBJECT_ID":"1964-080A","CENTER_NAME":"EARTH","REF_FRAME":"TEME","TIME_SYSTEM":"UTC","MEAN_ELEMENT_THEORY":"SGP4","EPOCH":"1965-11-14T00:23:58.576416","MEAN_MOTION":"16.35488341","ECCENTRICITY":"0.00000000","INCLINATION":"48.7355","RA_OF_ASC_NODE":"317.2960","ARG_OF_PERICENTER":"0.0000","MEAN_ANOMALY":"359.9999","EPHEMERIS_TYPE":"0","CLASSIFICATION_TYPE":"U","NORAD_CAT_ID":"947","ELEMENT_SET_NO":"999","REV_AT_EPOCH":"5347","BSTAR":"0.00000000000000","MEAN_MOTION_DOT":"0.02148720","MEAN_MOTION_DDOT":"0.0057745000000","SEMIMAJOR_AXIS":"6555.972","PERIOD":"88.047","APOAPSIS":"177.837","PERIAPSIS":"177.837","OBJECT_TYPE":"PAYLOAD","RCS_SIZE":null,"COUNTRY_CODE":null,"LAUNCH_DATE":null,"SITE":null,"DECAY_DATE":"1965-11-14","FILE":"33911","GP_ID":"8698886","TLE_LINE0":"0 COSMOS 51","TLE_LINE1":"1 00947U 64080  A 65318.01665019  .02148720 +57745-2 +00000-0 0  9993","TLE_LINE2":"2 00947 048.7355 317.2960 0000000 000.0000 359.9999 16.35488341053477"},{"CCSDS_OMM_VERS":"2.0","COMMENT":"GENERATED VIA SPACE-TRACK.ORG API","CREATION_DATE":"2004-08-15T23:35:38","ORIGINATOR":"18 SPCS","OBJECT_NAME":"SL-8 DEB","OBJECT_ID":"1965-020BS","CENTER_NAME":"EARTH","REF_FRAME":"TEME","TIME_SYSTEM":"UTC","MEAN_ELEMENT_THEORY":"SGP4","EPOCH":"1965-11-17T00:59:14.330111","MEAN_MOTION":"15.62496834","ECCENTRICITY":"0.02057270","INCLINATION":"56.0064","RA_OF_ASC_NODE":"150.9246","ARG_OF_PERICENTER":"208.4462","MEAN_ANOMALY":"150.4935","EPHEMERIS_TYPE":"0","CLASSIFICATION_TYPE":"U","NORAD_CAT_ID":"1492","ELEMENT_SET_NO":"999","REV_AT_EPOCH":"3565","BSTAR":"0.00000000000000","MEAN_MOTION_DOT":"0.01614569","MEAN_MOTION_DDOT":"0.0042264000000","SEMIMAJOR_AXIS":"6758.588","PERIOD":"92.160","APOAPSIS":"519.496","PERIAPSIS":"241.411","OBJECT_TYPE":"DEBRIS","RCS_SIZE":null,"COUNTRY_CODE":null,"LAUNCH_DATE":null,"SITE":null,"DECAY_DATE":"1965-11-23","FILE":"33911","GP_ID":"8702823","TLE_LINE0":"0 SL-8 DEB","TLE_LINE1":"1 01492U 65020 BS 65321.04113808  .01614569 +42264-2 +00000-0 0  9993","TLE_LINE2":"2 01492 056.0064 150.9246 0205727 208.4462 150.4935 15.62496834035659"},{"CCSDS_OMM_VERS":"2.0","COMMENT":"GENERATED VIA SPACE-TRACK.ORG API","CREATION_DATE":"2004-08-15T23:35:38","ORIGINATOR":"18 SPCS","OBJECT_NAME":"EXPLORER 21 (IMP-2)","OBJECT_ID":"1964-060A","CENTER_NAME":"EARTH","REF_FRAME":"TEME","TIME_SYSTEM":"UTC","MEAN_ELEMENT_THEORY":"SGP4","EPOCH":"1965-11-20T11:03:54.554112","MEAN_MOTION":"0.69219392","ECCENTRICITY":"0.86485980","INCLINATION":"33.7150","RA_OF_ASC_NODE":"193.3345","ARG_OF_PERICENTER":"178.8563","MEAN_ANOMALY":"188.0506","EPHEMERIS_TYPE":"0","CLASSIFICATION_TYPE":"U","NORAD_CAT_ID":"889","ELEMENT_SET_NO":"999","REV_AT_EPOCH":"286","BSTAR":"0.00000000000000","MEAN_MOTION_DOT":"0.00000000","MEAN_MOTION_DDOT":"0.0000000000000","SEMIMAJOR_AXIS":"53982.160","PERIOD":"2080.341","APOAPSIS":"94291.026","PERIAPSIS":"917.025","OBJECT_TYPE":"PAYLOAD","RCS_SIZE":null,"COUNTRY_CODE":null,"LAUNCH_DATE":null,"SITE":null,"DECAY_DATE":"1966-01-30","FILE":"33911","GP_ID":"8698305","TLE_LINE0":"0 EXPLORER 21 (IMP-2)","TLE_LINE1":"1 00889U 64060  A 65324.46104808  .00000000 +00000-0 +00000-0 0  9992","TLE_LINE2":"2 00889 033.7150 193.3345 8648598 178.8563 188.0506 00.69219392002865"},{"CCSDS_OMM_VERS":"2.0","COMMENT":"GENERATED VIA SPACE-TRACK.ORG API","CREATION_DATE":"2004-08-15T23:35:38","ORIGINATOR":"18 SPCS","OBJECT_NAME":"SL-8 DEB","OBJECT_ID":"1965-020CR","CENTER_NAME":"EARTH","REF_FRAME":"TEME","TIME_SYSTEM":"UTC","MEAN_ELEMENT_THEORY":"SGP4","EPOCH":"1965-11-21T23:06:11.727071","MEAN_MOTION":"14.91868212","ECCENTRICITY":"0.04745020","INCLINATION":"55.9744","RA_OF_ASC_NODE":"147.2398","ARG_OF_PERICENTER":"206.4470","MEAN_ANOMALY":"151.1324","EPHEMERIS_TYPE":"0","CLASSIFICATION_TYPE":"U","NORAD_CAT_ID":"1545","ELEMENT_SET_NO":"999","REV_AT_EPOCH":"1343","BSTAR":"0.00000000000000","MEAN_MOTION_DOT":"0.00317540","MEAN_MOTION_DDOT":"0.0001129500000","SEMIMAJOR_AXIS":"6970.251","PERIOD":"96.523","APOAPSIS":"922.856","PERIAPSIS":"261.377","OBJECT_TYPE":"DEBRIS","RCS_SIZE":null,"COUNTRY_CODE":null,"LAUNCH_DATE":null,"SITE":null,"DECAY_DATE":"1966-01-24","FILE":"33911","GP_ID":"8703326","TLE_LINE0":"0 SL-8 DEB","TLE_LINE1":"1 01545U 65020 CR 65325.96263573  .00317540 +11295-3 +00000-0 0  9991","TLE_LINE2":"2 01545 055.9744 147.2398 0474502 206.4470 151.1324 14.91868212013430"},{"CCSDS_OMM_VERS":"2.0","COMMENT":"GENERATED VIA SPACE-TRACK.ORG API","CREATION_DATE":"2004-08-15T23:35:38","ORIGINATOR":"18 SPCS","OBJECT_NAME":"OPS 6749 DEB","OBJECT_ID":"1965-050D","CENTER_NAME":"EARTH","REF_FRAME":"TEME","TIME_SYSTEM":"UTC","MEAN_ELEMENT_THEORY":"SGP4","EPOCH":"1965-11-25T03:36:34.394112","MEAN_MOTION":"15.97277264","ECCENTRICITY":"0.00048240","INCLINATION":"107.6542","RA_OF_ASC_NODE":"253.6218","ARG_OF_PERICENTER":"161.8779","MEAN_ANOMALY":"198.1760","EPHEMERIS_TYPE":"0","CLASSIFICATION_TYPE":"U","NORAD_CAT_ID":"1427","ELEMENT_SET_NO":"999","REV_AT_EPOCH":"2337","BSTAR":"0.00000000000000","MEAN_MOTION_DOT":"0.06373813","MEAN_MOTION_DDOT":"0.0916270000000","SEMIMAJOR_AXIS":"6660.117","PERIOD":"90.153","APOAPSIS":"285.195","PERIAPSIS":"278.769","OBJECT_TYPE":"DEBRIS","RCS_SIZE":null,"COUNTRY_CODE":null,"LAUNCH_DATE":null,"SITE":null,"DECAY_DATE":"1965-11-26","FILE":"33911","GP_ID":"8702021","TLE_LINE0":"0 OPS 6749 DEB","TLE_LINE1":"1 01427U 65050  D 65329.15039808  .06373813 +91627-1 +00000-0 0  9996","TLE_LINE2":"2 01427 107.6542 253.6218 0004824 161.8779 198.1760 15.97277264023372"}]